STARLINK-35437          
1 66563U 25268G   26181.95665671  .00026794  00000+0  97927-3 0  9996
2 66563  43.0012  67.2915 0001349 266.0043  94.0654 15.27593655 35280
STARLINK-35358          
1 66564U 25268H   26181.95280078  .00036162  00000+0  13158-2 0  9994
2 66564  43.0007  67.2605 0001003 250.1878 109.8865 15.27616204 35283
STARLINK-35893          
1 66565U 25268J   26181.94894721  .00025503  00000+0  93262-3 0  9992
2 66565  43.0031  67.2315 0000779 266.3399  93.7364 15.27595822 35282
STARLINK-35871          
1 66566U 25268K   26181.94637698  .00020370  00000+0  74747-3 0  9995
2 66566  43.0046  67.2132 0001804 284.9899  75.0753 15.27589754 35289
STARLINK-35825          
1 66567U 25268L   26181.68096541  .00016397  00000+0  60364-3 0  9997
2 66567  43.0039  68.6594 0002093 283.1594  76.9024 15.27601614 35240
STARLINK-35803          
1 66568U 25268M   26181.74122514  .00018905  00000+0  69449-3 0  9995
2 66568  42.9999  68.2484 0001653 283.5289  76.5379 15.27591911 35252
STARLINK-35835          
1 66569U 25268N   26181.73865516  .00024291  00000+0  88880-3 0  9996
2 66569  43.0009  68.2270 0002000 284.3881  75.6748 15.27599643 35254
STARLINK-35834          
1 66570U 25268P   26181.73623178  .00017057  00000+0  62770-3 0  9996
2 66570  43.0010  69.0803 0001053 267.3744  92.6987 15.27591816 35242
STARLINK-35870          
1 66572U 25268R   26181.98749000  .00028595  00000+0  10452-2 0  9996
2 66572  43.0037  67.5294 0002296 271.0757  88.9831 15.27561617 35282
STARLINK-35650          
1 66573U 25268S   26181.98364016  .00024317  00000+0  88973-3 0  9999
2 66573  43.0013  67.4981 0001490 271.3000  88.7681 15.27600280 35289
STARLINK-35812          
1 66574U 25268T   26181.97978547  .00028436  00000+0  10381-2 0  9992
2 66574  43.0001  67.4665 0001344 264.5727  95.4972 15.27603531 35284
STARLINK-35810          
1 66575U 25268U   26181.97593051  .00026300  00000+0  96127-3 0  9997
2 66575  42.9993  67.4417 0000800 158.1222 201.9664 15.27599393 35284
STARLINK-35814          
1 66576U 25268V   26181.97207448  .00022954  00000+0  84059-3 0  9992
2 66576  43.0009  67.4074 0001919 278.1051  81.9583 15.27597322 35285
STARLINK-35815          
1 66577U 25268W   26181.96565122  .00032231  00000+0  11746-2 0  9999
2 66577  42.9976  67.3552 0001028 269.7697  90.3037 15.27610938 35287
STARLINK-35743          
1 66578U 25268X   26181.70024854  .00012569  00000+0  46527-3 0  9992
2 66578  42.9972  68.8007 0002221 278.2870  81.7730 15.27596296 35249
STARLINK-35868          
1 66579U 25268Y   26181.95793872  .00035168  00000+0  12800-2 0  9999
2 66579  43.0007  67.2962 0000842 253.2272 106.8487 15.27615279 35285
STARLINK-35872          
1 66580U 25268Z   26181.95408589  .00036233  00000+0  13185-2 0  9990
2 66580  43.0014  67.2667 0001955 272.3896  87.6732 15.27609453 35283
STARLINK-35744          
1 66581U 25268AA  26181.68868418  .00026802  00000+0  97940-3 0  9995
2 66581  43.0019  68.7138 0001333 262.0279  98.0421 15.27599164 35243
STARLINK-35746          
1 66582U 25268AB  26181.68226169  .00022460  00000+0  82263-3 0  9995
2 66582  43.0077  68.6688 0001404 281.0518  79.0175 15.27604375 35249
STARLINK-35941          
1 66583U 25268AC  26181.74380016  .00024533  00000+0  89720-3 0  9993
2 66583  43.0038  68.2674 0002302 289.1174  70.9428 15.27610750 35259
STARLINK-35939          
1 66584U 25268AD  26181.73993755  .00026027  00000+0  95116-3 0  9999
2 66584  42.9979  68.2290 0000978 238.3740 121.7016 15.27608054 35250
STARLINK-35963          
1 66585U 25268AE  26181.99135003  .00019377  00000+0  71151-3 0  9995
2 66585  43.0008  67.5530 0001652 279.5206  80.5459 15.27594772 35286
STARLINK-35447          
1 66589U 25270B   26181.85832239  .00020017  00000+0  73467-3 0  9997
2 66589  43.0040 137.0645 0001530 268.7732  91.2945 15.27591789 35122
STARLINK-35429          
1 66590U 25270C   26181.88917738  .00017628  00000+0  64830-3 0  9998
2 66590  43.0019 137.2910 0001707 276.3847  83.6810 15.27593604 35129
STARLINK-36066          
1 66592U 25270E   26181.87630332  .00038846  00000+0  14135-2 0  9998
2 66592  43.0007 137.1946 0001996 273.7091  86.3532 15.27584689 34918
