OBJECT_NAME,OBJECT_ID,EPOCH,MEAN_MOTION,ECCENTRICITY,INCLINATION,RA_OF_ASC_NODE,ARG_OF_PERICENTER,MEAN_ANOMALY,EPHEMERIS_TYPE,CLASSIFICATION_TYPE,NORAD_CAT_ID,ELEMENT_SET_NO,REV_AT_EPOCH,BSTAR,MEAN_MOTION_DOT,MEAN_MOTION_DDOT
STARLINK-35437,2025-268G,2026-06-30T22:57:35.140608,15.27593656,.0001349,43.0012,67.2915,266.0043,94.0654,0,U,66563,999,3528,.97926732E-3,.26794E-3,0
STARLINK-35358,2025-268H,2026-06-30T22:52:01.987392,15.27616204,.00010028,43.0007,67.2605,250.1878,109.8865,0,U,66564,999,3528,.13157602E-2,.36162E-3,0
STARLINK-35893,2025-268J,2026-06-30T22:46:29.039808,15.27595822,.00007786,43.0031,67.2315,266.3399,93.7364,0,U,66565,999,3528,.93262399E-3,.25503E-3,0
STARLINK-35871,2025-268K,2026-06-30T22:42:46.971072,15.27589754,.00018045,43.0046,67.2132,284.9899,75.0753,0,U,66566,999,3528,.74746933E-3,.2037E-3,0
STARLINK-35825,2025-268L,2026-06-30T16:20:35.411424,15.27601614,.00020934,43.0039,68.6594,283.1594,76.9024,0,U,66567,999,3524,.60363509E-3,.16397E-3,0
STARLINK-35803,2025-268M,2026-06-30T17:47:21.852096,15.27591911,.00016534,42.9999,68.2484,283.5289,76.5379,0,U,66568,999,3525,.69449445E-3,.18905E-3,0
STARLINK-35835,2025-268N,2026-06-30T17:43:39.805824,15.27599643,.00020001,43.0009,68.2270,284.3881,75.6748,0,U,66569,999,3525,.88880063E-3,.24291E-3,0
STARLINK-35834,2025-268P,2026-06-30T17:40:10.425792,15.27591816,.00010536,43.0010,69.0803,267.3744,92.6987,0,U,66570,999,3524,.62770286E-3,.17057E-3,0
STARLINK-35870,2025-268R,2026-06-30T23:41:59.136864,15.27561617,.00022958,43.0037,67.5294,271.0757,88.9831,0,U,66572,999,3528,.10451793E-2,.28595E-3,0
STARLINK-35650,2025-268S,2026-06-30T23:36:26.510688,15.27600280,.00014902,43.0013,67.4981,271.3000,88.7681,0,U,66573,999,3528,.8897341E-3,.24317E-3,0
STARLINK-35812,2025-268T,2026-06-30T23:30:53.465472,15.27603531,.0001344,43.0001,67.4665,264.5727,95.4972,0,U,66574,999,3528,.10381326E-2,.28436E-3,0
STARLINK-35810,2025-268U,2026-06-30T23:25:20.396064,15.27599393,.00008005,42.9993,67.4417,158.1222,201.9664,0,U,66575,999,3528,.96127084E-3,.263E-3,0
STARLINK-35814,2025-268V,2026-06-30T23:19:47.235072,15.27597322,.00019193,43.0009,67.4074,278.1051,81.9583,0,U,66576,999,3528,.84058828E-3,.22954E-3,0
STARLINK-35815,2025-268W,2026-06-30T23:10:32.265408,15.27610938,.00010281,42.9976,67.3552,269.7697,90.3037,0,U,66577,999,3528,.11745536E-2,.32231E-3,0
STARLINK-35743,2025-268X,2026-06-30T16:48:21.473856,15.27596296,.00022213,42.9972,68.8007,278.2870,81.7730,0,U,66578,999,3524,.46526631E-3,.12569E-3,0
STARLINK-35868,2025-268Y,2026-06-30T22:59:25.905408,15.27615279,.00008424,43.0007,67.2962,253.2272,106.8487,0,U,66579,999,3528,.12800487E-2,.35168E-3,0
STARLINK-35872,2025-268Z,2026-06-30T22:53:53.021760,15.27609453,.00019545,43.0014,67.2667,272.3896,87.6732,0,U,66580,999,3528,.13185488E-2,.36233E-3,0
STARLINK-35744,2025-268AA,2026-06-30T16:31:42.313152,15.27599164,.00013336,43.0019,68.7138,262.0279,98.0421,0,U,66581,999,3524,.97939567E-3,.26802E-3,0
STARLINK-35746,2025-268AB,2026-06-30T16:22:27.410016,15.27604375,.0001404,43.0077,68.6688,281.0518,79.0175,0,U,66582,999,3524,.82262668E-3,.2246E-3,0
STARLINK-35941,2025-268AC,2026-06-30T17:51:04.333824,15.27610750,.00023025,43.0038,68.2674,289.1174,70.9428,0,U,66583,999,3525,.89719758E-3,.24533E-3,0
STARLINK-35939,2025-268AD,2026-06-30T17:45:30.604320,15.27608054,.00009784,42.9979,68.2290,238.3740,121.7016,0,U,66584,999,3525,.951161E-3,.26027E-3,0
STARLINK-35963,2025-268AE,2026-06-30T23:47:32.643456,15.27594772,.0001652,43.0008,67.5530,279.5206,80.5459,0,U,66585,999,3528,.71150566E-3,.19377E-3,0
STARLINK-35447,2025-270B,2026-06-30T20:35:59.054496,15.27591789,.00015301,43.0040,137.0645,268.7732,91.2945,0,U,66589,999,3512,.73467388E-3,.20017E-3,0
STARLINK-35429,2025-270C,2026-06-30T21:20:24.926496,15.27593604,.00017071,43.0019,137.2910,276.3847,83.6810,0,U,66590,999,3512,.64829781E-3,.17628E-3,0
STARLINK-36066,2025-270E,2026-06-30T21:01:52.607712,15.27584689,.00019964,43.0007,137.1946,273.7091,86.3532,0,U,66592,999,3491,.14134915E-2,.38846E-3,0
